start=new Date('2021-08-28T00:00:00.000Z').valueOf();
sats=[{"APOAPSIS":"548.493","INCLINATION":"53.0545","EPOCH":"2021-08-27T10:52:43.728960","GP_ID":"183557388","TLE_LINE1":"1 47891U 21021AH  21239.45328390  .00001184  00000-0  98363-4 0  9993","MEAN_ELEMENT_THEORY":"SGP4","OBJECT_ID":"2021-021AH","TIME_SYSTEM":"UTC","OBJECT_TYPE":"PAYLOAD","SITE":"AFETR","COUNTRY_CODE":"US","MEAN_MOTION_DOT":"0.00001184","REF_FRAME":"TEME","RA_OF_ASC_NODE":"152.2493","ELEMENT_SET_NO":"999","MEAN_ANOMALY":"286.1983","PERIOD":"95.592","ARG_OF_PERICENTER":"73.9210","SEMIMAJOR_AXIS":"6925.342","ECCENTRICITY":"0.00018580","MEAN_MOTION_DDOT":"0.0000000000000","DECAY_DATE":null,"LAUNCH_DATE":"2021-03-14","TLE_LINE2":"2 47891  53.0545 152.2493 0001858  73.9210 286.1983 15.06402292 26739","BSTAR":"0.00009836300000","FILE":"3104038","CENTER_NAME":"EARTH","RCS_SIZE":"LARGE","PERIAPSIS":"545.920","EPHEMERIS_TYPE":"0","CLASSIFICATION_TYPE":"U","OBJECT_NAME":"STARLINK-2351","NORAD_CAT_ID":"47891","MEAN_MOTION":"15.06402292","REV_AT_EPOCH":"2673"},{"OBJECT_TYPE":"PAYLOAD","SITE":"AFETR","COUNTRY_CODE":"US","INCLINATION":"53.0557","APOAPSIS":"548.678","EPOCH":"2021-08-27T11:19:16.042080","MEAN_ELEMENT_THEORY":"SGP4","OBJECT_ID":"2021-021AJ","TIME_SYSTEM":"UTC","GP_ID":"183556155","TLE_LINE1":"1 47892U 21021AJ  21239.47171345 -.00000699  00000-0 -28044-4 0  9993","ELEMENT_SET_NO":"999","MEAN_ANOMALY":"290.4394","PERIOD":"95.593","SEMIMAJOR_AXIS":"6925.370","ARG_OF_PERICENTER":"69.6819","MEAN_MOTION_DOT":"-0.00000699","RA_OF_ASC_NODE":"152.1663","REF_FRAME":"TEME","LAUNCH_DATE":"2021-03-14","FILE":"3104038","PERIAPSIS":"545.793","RCS_SIZE":"LARGE","EPHEMERIS_TYPE":"0","CENTER_NAME":"EARTH","TLE_LINE2":"2 47892  53.0557 152.1663 0002083  69.6819 290.4394 15.06392889 26575","BSTAR":"-0.00002804400000","ECCENTRICITY":"0.00020830","DECAY_DATE":null,"MEAN_MOTION_DDOT":"0.0000000000000","REV_AT_EPOCH":"2657","NORAD_CAT_ID":"47892","MEAN_MOTION":"15.06392889","CLASSIFICATION_TYPE":"U","OBJECT_NAME":"STARLINK-2352"},{"MEAN_MOTION":"15.06400566","NORAD_CAT_ID":"47894","REV_AT_EPOCH":"2669","CLASSIFICATION_TYPE":"U","OBJECT_NAME":"STARLINK-2354","LAUNCH_DATE":"2021-03-14","BSTAR":"-0.00003517400000","TLE_LINE2":"2 47894  53.0559 141.2531 0002098  77.9216 282.2008 15.06400566 26697","RCS_SIZE":"LARGE","FILE":"3104038","CENTER_NAME":"EARTH","PERIAPSIS":"545.759","EPHEMERIS_TYPE":"0","ECCENTRICITY":"0.00020980","MEAN_MOTION_DDOT":"0.0000000000000","DECAY_DATE":null,"MEAN_ANOMALY":"282.2008","ELEMENT_SET_NO":"999","ARG_OF_PERICENTER":"77.9216","SEMIMAJOR_AXIS":"6925.347","PERIOD":"95.592","RA_OF_ASC_NODE":"141.2531","REF_FRAME":"TEME","MEAN_MOTION_DOT":"-0.00000806","SITE":"AFETR","OBJECT_TYPE":"PAYLOAD","COUNTRY_CODE":"US","EPOCH":"2021-08-27T16:12:30.387744","APOAPSIS":"548.665","INCLINATION":"53.0559","TLE_LINE1":"1 47894U 21021AL  21239.67535171 -.00000806  00000-0 -35174-4 0  9990","GP_ID":"183556919","OBJECT_ID":"2021-021AL","TIME_SYSTEM":"UTC","MEAN_ELEMENT_THEORY":"SGP4"},{"OBJECT_TYPE":"PAYLOAD","SITE":"AFETR","COUNTRY_CODE":"US","INCLINATION":"53.0560","APOAPSIS":"548.744","EPOCH":"2021-08-27T05:19:39.456480","GP_ID":"183530389","TLE_LINE1":"1 47895U 21021AM  21239.22198445 -.00000277  00000-0  31412-6 0  9995","MEAN_ELEMENT_THEORY":"SGP4","TIME_SYSTEM":"UTC","OBJECT_ID":"2021-021AM","ELEMENT_SET_NO":"999","MEAN_ANOMALY":"283.5351","PERIOD":"95.592","ARG_OF_PERICENTER":"76.5884","SEMIMAJOR_AXIS":"6925.351","MEAN_MOTION_DOT":"-0.00000277","RA_OF_ASC_NODE":"143.2879","REF_FRAME":"TEME","LAUNCH_DATE":"2021-03-14","TLE_LINE2":"2 47895  53.0560 143.2879 0002206  76.5884 283.5351 15.06399172 26655","BSTAR":"0.00000031412000","FILE":"3103885","RCS_SIZE":"LARGE","PERIAPSIS":"545.688","EPHEMERIS_TYPE":"0","CENTER_NAME":"EARTH","ECCENTRICITY":"0.00022060","MEAN_MOTION_DDOT":"0.0000000000000","DECAY_DATE":null,"NORAD_CAT_ID":"47895","MEAN_MOTION":"15.06399172","REV_AT_EPOCH":"2665","CLASSIFICATION_TYPE":"U","OBJECT_NAME":"STARLINK-2355"},{"CLASSIFICATION_TYPE":"U","OBJECT_NAME":"STARLINK-2356","NORAD_CAT_ID":"47896","MEAN_MOTION":"15.06396902","REV_AT_EPOCH":"2645","ECCENTRICITY":"0.00015700","MEAN_MOTION_DDOT":"0.0000000000000","DECAY_DATE":null,"LAUNCH_DATE":"2021-03-14","TLE_LINE2":"2 47896  53.0537 157.0943 0001570  93.2283 266.8885 15.06396902 26459","BSTAR":"0.00000178770000","FILE":"3104038","RCS_SIZE":"LARGE","PERIAPSIS":"546.136","EPHEMERIS_TYPE":"0","CENTER_NAME":"EARTH","MEAN_MOTION_DOT":"-0.00000255","REF_FRAME":"TEME","RA_OF_ASC_NODE":"157.0943","MEAN_ANOMALY":"266.8885","ELEMENT_SET_NO":"999","PERIOD":"95.592","SEMIMAJOR_AXIS":"6925.358","ARG_OF_PERICENTER":"93.2283","APOAPSIS":"548.310","INCLINATION":"53.0537","EPOCH":"2021-08-27T11:31:52.028256","GP_ID":"183557903","TLE_LINE1":"1 47896U 21021AN  21239.48046329 -.00000255  00000-0  17877-5 0  9991","MEAN_ELEMENT_THEORY":"SGP4","TIME_SYSTEM":"UTC","OBJECT_ID":"2021-021AN","OBJECT_TYPE":"PAYLOAD","SITE":"AFETR","COUNTRY_CODE":"US"},{"COUNTRY_CODE":"US","OBJECT_TYPE":"PAYLOAD","SITE":"AFETR","GP_ID":"183531364","TLE_LINE1":"1 47897U 21021AP  21239.15195146 -.00001072  00000-0 -53100-4 0  9995","MEAN_ELEMENT_THEORY":"SGP4","TIME_SYSTEM":"UTC","OBJECT_ID":"2021-021AP","INCLINATION":"53.0559","APOAPSIS":"548.518","EPOCH":"2021-08-27T03:38:48.606144","PERIOD":"95.592","SEMIMAJOR_AXIS":"6925.363","ARG_OF_PERICENTER":"74.4354","MEAN_ANOMALY":"285.6841","ELEMENT_SET_NO":"999","MEAN_MOTION_DOT":"-0.00001072","RA_OF_ASC_NODE":"143.6028","REF_FRAME":"TEME","TLE_LINE2":"2 47897  53.0559 143.6028 0001863  74.4354 285.6841 15.06395425 26678","BSTAR":"-0.00005310000000","FILE":"3103885","RCS_SIZE":"LARGE","PERIAPSIS":"545.937","CENTER_NAME":"EARTH","EPHEMERIS_TYPE":"0","LAUNCH_DATE":"2021-03-14","MEAN_MOTION_DDOT":"0.0000000000000","DECAY_DATE":null,"ECCENTRICITY":"0.00018630","NORAD_CAT_ID":"47897","MEAN_MOTION":"15.06395425","REV_AT_EPOCH":"2667","OBJECT_NAME":"STARLINK-2357","CLASSIFICATION_TYPE":"U"},{"ELEMENT_SET_NO":"999","MEAN_ANOMALY":"289.5936","PERIOD":"95.592","SEMIMAJOR_AXIS":"6925.355","ARG_OF_PERICENTER":"70.5277","MEAN_MOTION_DOT":"-0.00000461","RA_OF_ASC_NODE":"143.3200","REF_FRAME":"TEME","OBJECT_TYPE":"PAYLOAD","SITE":"AFETR","COUNTRY_CODE":"US","INCLINATION":"53.0567","APOAPSIS":"548.652","EPOCH":"2021-08-27T05:09:02.589120","MEAN_ELEMENT_THEORY":"SGP4","TIME_SYSTEM":"UTC","OBJECT_ID":"2021-021AQ","GP_ID":"183529640","TLE_LINE1":"1 47898U 21021AQ  21239.21461330 -.00000461  00000-0 -12067-4 0  9992","REV_AT_EPOCH":"2662","NORAD_CAT_ID":"47898","MEAN_MOTION":"15.06397788","CLASSIFICATION_TYPE":"U","OBJECT_NAME":"STARLINK-2358","LAUNCH_DATE":"2021-03-14","FILE":"3103885","EPHEMERIS_TYPE":"0","RCS_SIZE":"LARGE","PERIAPSIS":"545.789","CENTER_NAME":"EARTH","TLE_LINE2":"2 47898  53.0567 143.3200 0002067  70.5277 289.5936 15.06397788 26622","BSTAR":"-0.00001206700000","ECCENTRICITY":"0.00020670","DECAY_DATE":null,"MEAN_MOTION_DDOT":"0.0000000000000"},{"OBJECT_NAME":"STARLINK-2359","CLASSIFICATION_TYPE":"U","REV_AT_EPOCH":"2685","MEAN_MOTION":"15.06399172","NORAD_CAT_ID":"47899","DECAY_DATE":null,"MEAN_MOTION_DDOT":"0.0000000000000","ECCENTRICITY":"0.00023030","FILE":"3104038","CENTER_NAME":"EARTH","RCS_SIZE":"LARGE","PERIAPSIS":"545.621","EPHEMERIS_TYPE":"0","BSTAR":"0.00002145900000","TLE_LINE2":"2 47899  53.0560 132.4427 0002303  86.4722 273.6531 15.06399172 26859","LAUNCH_DATE":"2021-03-14","RA_OF_ASC_NODE":"132.4427","REF_FRAME":"TEME","MEAN_MOTION_DOT":"0.00000038","SEMIMAJOR_AXIS":"6925.351","ARG_OF_PERICENTER":"86.4722","PERIOD":"95.592","ELEMENT_SET_NO":"999","MEAN_ANOMALY":"273.6531","OBJECT_ID":"2021-021AR","TIME_SYSTEM":"UTC","MEAN_ELEMENT_THEORY":"SGP4","TLE_LINE1":"1 47899U 21021AR  21239.41089013  .00000038  00000-0  21459-4 0  9992","GP_ID":"183557671","EPOCH":"2021-08-27T09:51:40.907232","INCLINATION":"53.0560","APOAPSIS":"548.811","COUNTRY_CODE":"US","SITE":"AFETR","OBJECT_TYPE":"PAYLOAD"},{"ELEMENT_SET_NO":"999","MEAN_ANOMALY":"275.7412","SEMIMAJOR_AXIS":"6925.365","ARG_OF_PERICENTER":"84.3838","PERIOD":"95.592","RA_OF_ASC_NODE":"142.3333","REF_FRAME":"TEME","MEAN_MOTION_DOT":"-0.00000725","SITE":"AFETR","OBJECT_TYPE":"PAYLOAD","COUNTRY_CODE":"US","EPOCH":"2021-08-27T10:26:09.391488","APOAPSIS":"548.811","INCLINATION":"53.0565","TIME_SYSTEM":"UTC","OBJECT_ID":"2021-021AS","MEAN_ELEMENT_THEORY":"SGP4","TLE_LINE1":"1 47900U 21021AS  21239.43483092 -.00000725  00000-0 -29731-4 0  9998","GP_ID":"183557389","REV_AT_EPOCH":"2671","MEAN_MOTION":"15.06394477","NORAD_CAT_ID":"47900","CLASSIFICATION_TYPE":"U","OBJECT_NAME":"STARLINK-2360","LAUNCH_DATE":"2021-03-14","PERIAPSIS":"545.650","FILE":"3104038","RCS_SIZE":"LARGE","CENTER_NAME":"EARTH","EPHEMERIS_TYPE":"0","BSTAR":"-0.00002973100000","TLE_LINE2":"2 47900  53.0565 142.3333 0002282  84.3838 275.7412 15.06394477 26713","ECCENTRICITY":"0.00022820","DECAY_DATE":null,"MEAN_MOTION_DDOT":"0.0000000000000"},{"NORAD_CAT_ID":"47901","MEAN_MOTION":"15.06395016","REV_AT_EPOCH":"2679","OBJECT_NAME":"STARLINK-2361","CLASSIFICATION_TYPE":"U","TLE_LINE2":"2 47901  53.0448 133.7616 0002286  84.8390 275.2859 15.06395016 26792","BSTAR":"-0.00001068400000","FILE":"3103885","RCS_SIZE":"LARGE","EPHEMERIS_TYPE":"0","PERIAPSIS":"545.646","CENTER_NAME":"EARTH","LAUNCH_DATE":"2021-03-14","MEAN_MOTION_DDOT":"0.0000000000000","DECAY_DATE":null,"ECCENTRICITY":"0.00022860","PERIOD":"95.592","ARG_OF_PERICENTER":"84.8390","SEMIMAJOR_AXIS":"6925.364","ELEMENT_SET_NO":"999","MEAN_ANOMALY":"275.2859","MEAN_MOTION_DOT":"-0.00000441","RA_OF_ASC_NODE":"133.7616","REF_FRAME":"TEME","COUNTRY_CODE":"US","OBJECT_TYPE":"PAYLOAD","SITE":"AFETR","GP_ID":"183530865","TLE_LINE1":"1 47901U 21021AT  21239.12612825 -.00000441  00000-0 -10684-4 0  9995","MEAN_ELEMENT_THEORY":"SGP4","TIME_SYSTEM":"UTC","OBJECT_ID":"2021-021AT","APOAPSIS":"548.812","INCLINATION":"53.0448","EPOCH":"2021-08-27T03:01:37.480800"}];
